[{"OBJECT_NAME":"TIANQI-15","OBJECT_ID":"2021-065B","EPOCH":"2026-03-09T19:28:45.472224","MEAN_MOTION":15.09508085,"ECCENTRICITY":0.00070671,"INCLINATION":34.9979,"RA_OF_ASC_NODE":108.242,"ARG_OF_PERICENTER":250.7766,"MEAN_ANOMALY":109.218,"EPHEMERIS_TYPE":0,"CLASSIFICATION_TYPE":"U","NORAD_CAT_ID":49027,"ELEMENT_SET_NO":999,"REV_AT_EPOCH":25424,"BSTAR":0.00041179088,"MEAN_MOTION_DOT":6.722e-5,"MEAN_MOTION_DDOT":0},{"OBJECT_NAME":"STARLINK-3649","OBJECT_ID":"2022-025AA","EPOCH":"2026-03-09T22:21:48.426336","MEAN_MOTION":15.08835353,"ECCENTRICITY":0.00014383,"INCLINATION":53.2178,"RA_OF_ASC_NODE":38.031,"ARG_OF_PERICENTER":92.1104,"MEAN_ANOMALY":268.0053,"EPHEMERIS_TYPE":0,"CLASSIFICATION_TYPE":"U","NORAD_CAT_ID":51980,"ELEMENT_SET_NO":999,"REV_AT_EPOCH":22109,"BSTAR":-4.1581638e-5,"MEAN_MOTION_DOT":-9.5e-6,"MEAN_MOTION_DDOT":0}]
